{
  "norad_id": 69024,
  "name": "CAS500-2 RIDESHARE OBJECT AW",
  "history": [
    {
      "epoch": "2026-05-09T20:00:04.000032Z",
      "apogee_km": 510.0307812388892,
      "perigee_km": 503.6511606510103,
      "latitude_deg": -75.54972961365237,
      "longitude_deg": 10.551761640098865,
      "height_km": 536.7755175204011,
      "semi_major_axis_km": 6884.977970944949,
      "eccentricity": 0.0004633,
      "inclination_deg": 97.4104,
      "raan_deg": 28.3429,
      "arg_perigee_deg": 114.4124,
      "mean_anomaly_deg": 142.9883,
      "mean_motion_rev_day": 15.19668738
    }
  ]
}