CAS500-2 RIDESHARE OBJE*
1 69024U 26100AW  26129.83337963 -.00053867  00000+0 -25418-2 0  9994
2 69024  97.4104  28.3429 0004633 114.4124 142.9883 15.19668738  2123
